AZERSPACE 2 (IS-38)     
1 43632U 18074A   25083.90634810  .00000135  00000+0  00000+0 0  9994
2 43632   0.0237 186.7085 0001383 187.8297 179.4712  1.00269826 23947
HORIZONS-3E             
1 43633U 18074B   25084.13447767 -.00000032  00000+0  00000+0 0  9991
2 43633   0.0213 290.9004 0000685  34.8219  74.5122  1.00271566 23810
CENTISPACE-1 S1         
1 43636U 18075A   25084.17548134  .00002181  00000+0  47061-3 0  9997
2 43636  97.9212 124.4119 0010130  92.4036 267.8324 14.59280191345054
SAOCOM 1A               
1 43641U 18076A   25083.85333952  .00001733  00000+0  22418-3 0  9999
2 43641  97.8898 272.0422 0001220  87.7864 272.3489 14.82165467349547
YAOGAN-32 A             
1 43642U 18077A   25084.06548615  .00002729  00000+0  54887-3 0  9990
2 43642  97.9515 120.9693 0001652 103.6671 256.4715 14.62361851344182
YAOGAN-32 B             
1 43643U 18077B   25084.06535227  .00002811  00000+0  56494-3 0  9994
2 43643  97.9514 120.9290 0001672 100.5405 259.5985 14.62361806344170
BEIDOU-3 M16            
1 43647U 18078A   25083.05708283 -.00000030  00000+0  00000+0 0  9991
2 43647  54.4900 315.7187 0008219  24.4290 335.6629  1.86232296 43775
BEIDOU-3 M15            
1 43648U 18078B   25083.18632343 -.00000029  00000+0  00000+0 0  9997
2 43648  54.4857 315.7160 0005224  33.1401 326.9457  1.86232154 43799
AEHF-4 (USA 288)        
1 43651U 18079A   25083.88410676 -.00000276  00000+0  00000+0 0  9996
2 43651   1.5458 339.3101 0051851   7.8775  86.1777  1.00270950 23799
HAIYANG-2B              
1 43655U 18081A   25084.00295200  .00000060  00000+0  10176-3 0  9991
2 43655  99.3368  94.4185 0001806  59.5096 300.6234 13.79308193323003
COSMOS 2528             
1 43657U 18082A   25083.73534885  .00000039  00000+0  82481-4 0  9993
2 43657  67.1468  90.1158 0008088 276.0775  83.9388 13.96666219327180
CFOSAT                  
1 43662U 18083A   25084.11741912  .00011789  00000+0  60638-3 0  9997
2 43662  97.3678  96.7900 0001716  83.5382 276.6046 15.16594114354479
GOSAT 2                 
1 43672U 18084B   25083.56356065  .00006419  00000+0  77195-3 0  9998
2 43672  97.8457 196.4034 0001274 105.9332 254.2023 14.84268253346866
KHALIFASAT              
1 43676U 18084F   25084.14326398  .00007596  00000+0  63755-3 0  9997
2 43676  98.0744 244.1153 0013184 151.0850 209.1104 14.98581049348457
TEN-KOH                 
1 43677U 18084G   25083.83248454  .00008535  00000+0  69092-3 0  9993
2 43677  98.0966 253.0275 0010458 163.3104 196.8464 14.99966883348733
DIWATA-2B               
1 43678U 18084H   25084.04479707  .00007069  00000+0  60718-3 0  9992
2 43678  98.0996 257.2921 0008358 172.5612 187.5735 14.97757065348920
STARS-AO                
1 43679U 18084J   25084.04577459  .00018457  00000+0  11464-2 0  9992
2 43679  98.0747 266.8501 0002157 241.1988 118.9023 15.09733221349533
AUTCUBE 2               
1 43681U 18084K   25084.02375428  .00012978  00000+0  91089-3 0  9999
2 43681  98.0825 262.3774 0011012 117.8806 242.3535 15.05251436349241
BEIDOU-3 G1             
1 43683U 18085A   25083.81641803 -.00000277  00000+0  00000+0 0  9990
2 43683   2.8913 100.3203 0003002 353.5499 162.5785  1.00275004 23559
COSMOS 2529 [GLONASS-M] 
1 43687U 18086A   25083.63091944  .00000013  00000+0  00000+0 0  9997
2 43687  64.2941 207.7791 0008377 257.0328 102.8574  2.13101980 49703
METOP-C                 
1 43689U 18087A   25084.13221247  .00000473  00000+0  23584-3 0  9993
2 43689  98.6822 145.5493 0001643  51.9054 308.2272 14.21497629331035
GSAT-29                 
1 43698U 18089A   25083.90391859  .00000084  00000+0  00000+0 0  9998
2 43698   0.0186 173.3197 0002223 191.9199 197.8359  1.00268718 23297
ES'HAIL 2               
1 43700U 18090A   25084.11674003  .00000143  00000+0  00000+0 0  9999
2 43700   0.0252 173.3410 0001374 221.8739 215.4464  1.00269609 23410
BEIDOU-3 M17            
1 43706U 18093A   25082.80347592  .00000001  00000+0  00000+0 0  9995
2 43706  54.1893 197.5765 0007439 288.2875  71.6194  1.86228360 43152
BEIDOU-3 M18            
1 43707U 18093B   25083.74045576 -.00000002  00000+0  00000+0 0  9999
2 43707  54.1899 197.5364 0006041 326.1553  33.7917  1.86229781 43168
TIANZHI 1               
1 43710U 18094A   25084.06881535  .00077905  00000+0  79320-3 0  9993
2 43710  97.3455 114.2414 0003183 345.0589  15.0576 15.64883390354212
SHIYAN 6 01 (SY-6 01)   
1 43711U 18094B   25083.98676537  .00013860  00000+0  57406-3 0  9999
2 43711  97.3803  98.7845 0012653 301.4203  58.5797 15.23959156352949
TIANPING 1B             
1 43714U 18094E   25084.14830439  .00065712  00000+0  75244-3 0  9997
2 43714  97.3372 114.2062 0004143 341.8009  18.3099 15.61911548354244
MOHAMMED VI-B           
1 43717U 18095A   25084.18319265  .00002859  12873-8  40483-3 0  9994
2 43717  97.9412 157.9215 0001229  93.2987 266.8364 14.77151617331550
HYSIS                   
1 43719U 18096A   25083.94363827  .00003975  25060-8  54266-3 0  9999
2 43719  98.0389 147.6840 0001930 136.7078 223.4285 14.78697119341038
COSMOS 2530             
1 43751U 18097A   25084.11716949  .00000030  00000+0  14587-3 0  9992
2 43751  82.5145 141.0426 0018169 295.9032  64.0175 12.42863024286595
COSMOS 2531             
1 43752U 18097B   25084.14346197  .00000041  00000+0  22327-3 0  9993
2 43752  82.5192 141.9219 0015227 316.3457  43.6417 12.42855332286605
COSMOS 2532             
1 43753U 18097C   25084.17024577  .00000049  00000+0  28362-3 0  9995
2 43753  82.5135 140.8942 0016792 318.0631  41.9161 12.42854877286605
MINXSS-2                
1 43758U 18099A   25083.91723175  .00039012  00000+0  16823-2 0  9993
2 43758  97.5112 149.8428 0013281  70.7801 289.4871 15.22360976345291
SIRION PATHFINDER-2     
1 43759U 18099B   25083.88077910  .00014043  00000+0  89628-3 0  9990
2 43759  97.4885 138.6641 0010986  56.2722 303.9552 15.08738751344742
STPSAT-5                
1 43762U 18099E   25084.15738209  .00012645  00000+0  81227-3 0  9993
2 43762  97.4720 140.9980 0005078  90.5217 269.6594 15.08565637344927
POLAR SCOUT KODIAK      
1 43764U 18099G   25083.89573926  .00046118  00000+0  17215-2 0  9995
2 43764  97.4762 151.4812 0011439  52.7601 307.4679 15.27183636345585
HAWK-A                  
1 43765U 18099H   25083.61138288  .00011780  00000+0  74068-3 0  9991
2 43765  97.4560 138.4772 0012037  47.5218 312.7026 15.09320501344840
SPAWAR-CAL-O            
1 43766U 18099J   25083.90555267  .00031603  00000+0  15327-2 0  9992
2 43766  97.4977 143.2428 0012654  79.6904 280.5756 15.18371150344992
CORVUS BC4              
1 43767U 18099K   25083.70562795  .00011284  00000+0  74911-3 0  9993
2 43767  97.4694 134.6620 0010808 107.1357 253.1055 15.07341587344576
AISTECHSAT 2            
1 43768U 18099L   25083.71752268  .00013189  00000+0  83344-3 0  9997
2 43768  97.4933 136.7656 0006461  62.6383 297.5503 15.09151730344345
FOX-1CLIFF (AO-95)      
1 43770U 18099N   25083.90412965  .00025436  00000+0  13526-2 0  9990
2 43770  97.5023 142.9005 0012610 118.2836 241.9671 15.15182410344930
RANGE-A                 
1 43773U 18099R   25083.86082615  .00013142  00000+0  85533-3 0  9992
2 43773  97.4602 134.4966 0013451  96.4310 263.8450 15.08010104344654
HIBER-2                 
1 43774U 18099S   25083.14718541  .00057787  00000+0  18872-2 0  9992
2 43774  97.4982 150.9536 0005871  63.3900 296.7942 15.31532472345304
SPAWAR-CAL-R            
1 43776U 18099U   25083.58190501  .00005993  00000+0  44752-3 0  9991
2 43776  97.5011 133.9832 0023577  92.9914 267.4010 15.02960772344403
SPAWAR-CAL-OR           
1 43778U 18099W   25083.89369212  .00022835  00000+0  12702-2 0  9997
2 43778  97.4447 135.9490 0015535  86.2147 274.0860 15.13564940344471
MOVE-II                 
1 43780U 18099Y   25084.17962963  .00162084  00000+0  28217-2 0  9993
2 43780  97.4743 155.5751 0001997 101.2749 258.8727 15.50174374345870
SNUSAT-2                
1 43782U 18099AA  25083.86795306  .00019919  00000+0  11310-2 0  9999
2 43782  97.4706 140.2219 0013596  64.8121 295.4518 15.12882356344897
KAZSTSAT                
1 43783U 18099AB  25084.10444950  .00003482  00000+0  29651-3 0  9990
2 43783  97.4852 130.2269 0008053 111.4528 248.7555 14.98382500344022
SNUGLITE                
1 43784U 18099AC  25084.14830502  .00024182  00000+0  12769-2 0  9998
2 43784  97.4523 139.9202 0004817  76.3007 283.8762 15.15501445345051
ITASAT                  
1 43786U 18099AE  25084.05904371  .00017006  00000+0  10040-2 0  9993
2 43786  97.4668 140.1307 0016405 110.5280 249.7713 15.11475700344891
KAZSCISAT-1             
1 43787U 18099AF  25083.93322471  .00160339  00000+0  30286-2 0  9997
2 43787  97.4592 151.1343 0001440  53.1593 306.9789 15.47840988345783
EAGLET-I                
1 43790U 18099AJ  25083.94349192  .00012092  00000+0  78596-3 0  9990
2 43790  97.4873 140.2037 0014079  93.7313 266.5525 15.08070941344510
ESEO                    
1 43792U 18099AL  25083.87776940  .00005792  00000+0  44354-3 0  9993
2 43792  97.4598 134.3954 0012492  67.4519 292.8027 15.02175560344304
CSIM-FD                 
1 43793U 18099AM  25084.15772632  .00160399  00000+0  27433-2 0  9993
2 43793  97.4931 157.6470 0003591  35.8377 324.3115 15.50680595345715
HAWK-B                  
1 43794U 18099AN  25084.15427116  .00012899  00000+0  82006-3 0  9997
2 43794  97.4557 138.9753 0011632  46.7139 313.5058 15.08896029344919
THEA                    
1 43796U 18099AQ  25084.13025007  .00030874  00000+0  14720-2 0  9990
2 43796  97.5028 148.4896 0011244  73.0599 287.1866 15.18985879345266
SKYSAT-C12              
1 43797U 18099AR  25083.82225222  .00015567  00000+0  46513-3 0  9995
2 43797  96.9780 123.5851 0005199  16.8228 343.3188 15.34656654352642
